ORBCOMM FM05            
1 25117U 97084F   24132.02301147  .00009648  00000+0  29107-2 0  9991
2 25117  45.0136 134.2195 0003797 333.4235  26.6420 14.42693810383407
ORBCOMM FM06            
1 25118U 97084G   24132.00038628  .00010140  00000+0  30541-2 0  9994
2 25118  45.0130 134.4949 0002968 332.7586 123.6198 14.42734889383391
ORBCOMM FM07            
1 25119U 97084H   24131.97314342  .00009642  00000+0  29111-2 0  9996
2 25119  45.0124 135.1614 0004683 330.2238  29.8345 14.42654909383389
ORBCOMM FM03            
1 25158U 98007B   24132.49734654  .00006762  00000+0  25206-2 0  9996
2 25158 107.9712  31.7577 0047964 231.7182 127.9637 14.32169341366626
ORBCOMM FM04            
1 25159U 98007C   24132.48580604  .00007027  00000+0  26097-2 0  9994
2 25159 107.9695  34.6710 0043489 229.7302 130.0030 14.32429934366761
ORBCOMM FM17            
1 25413U 98046A   24131.70116660  .00002075  00000+0  79987-3 0  9996
2 25413  44.9961 354.3057 0002270   3.4461 356.6400 14.33132981345399
ORBCOMM FM18            
1 25414U 98046B   24132.46052740  .00014335  00000+0  49334-2 0  9993
2 25414  44.9930 277.8067 0002985  70.6786 289.4384 14.35932641346629
ORBCOMM FM19            
1 25415U 98046C   24132.51644388  .00007273  00000+0  25389-2 0  9992
2 25415  44.9939 278.9557 0001717  66.5541  37.4291 14.35748102346625
