<?xml version="1.0" encoding="UTF-8"?>
<ndm xmlns:xsi="http://www.w3.org/2001/XMLSchema-instance" xsi:noNamespaceSchemaLocation="https://sanaregistry.org/r/ndmxml_unqualified/ndmxml-2.0.0-master-2.0.xsd">
<omm id="CCSDS_OMM_VERS" version="2.0">
<header><CREATION_DATE/><ORIGINATOR/></header><body><segment><metadata><OBJECT_NAME>ORBCOMM FM05</OBJECT_NAME><OBJECT_ID>1997-084F</OBJECT_ID><CENTER_NAME>EARTH</CENTER_NAME><REF_FRAME>TEME</REF_FRAME><TIME_SYSTEM>UTC</TIME_SYSTEM><MEAN_ELEMENT_THEORY>SGP4</MEAN_ELEMENT_THEORY></metadata><data><meanElements><EPOCH>2024-05-11T00:33:08.191008</EPOCH><MEAN_MOTION>14.42693810</MEAN_MOTION><ECCENTRICITY>.0003797</ECCENTRICITY><INCLINATION>45.0136</INCLINATION><RA_OF_ASC_NODE>134.2195</RA_OF_ASC_NODE><ARG_OF_PERICENTER>333.4235</ARG_OF_PERICENTER><MEAN_ANOMALY>26.6420</MEAN_ANOMALY></meanElements><tleParameters><EPHEMERIS_TYPE>0</EPHEMERIS_TYPE><CLASSIFICATION_TYPE>U</CLASSIFICATION_TYPE><NORAD_CAT_ID>25117</NORAD_CAT_ID><ELEMENT_SET_NO>999</ELEMENT_SET_NO><REV_AT_EPOCH>38340</REV_AT_EPOCH><BSTAR>.29107E-2</BSTAR><MEAN_MOTION_DOT>.9648E-4</MEAN_MOTION_DOT><MEAN_MOTION_DDOT>0</MEAN_MOTION_DDOT></tleParameters></data></segment></body></omm>
<omm id="CCSDS_OMM_VERS" version="2.0">
<header><CREATION_DATE/><ORIGINATOR/></header><body><segment><metadata><OBJECT_NAME>ORBCOMM FM06</OBJECT_NAME><OBJECT_ID>1997-084G</OBJECT_ID><CENTER_NAME>EARTH</CENTER_NAME><REF_FRAME>TEME</REF_FRAME><TIME_SYSTEM>UTC</TIME_SYSTEM><MEAN_ELEMENT_THEORY>SGP4</MEAN_ELEMENT_THEORY></metadata><data><meanElements><EPOCH>2024-05-11T00:00:33.374592</EPOCH><MEAN_MOTION>14.42734889</MEAN_MOTION><ECCENTRICITY>.0002968</ECCENTRICITY><INCLINATION>45.0130</INCLINATION><RA_OF_ASC_NODE>134.4949</RA_OF_ASC_NODE><ARG_OF_PERICENTER>332.7586</ARG_OF_PERICENTER><MEAN_ANOMALY>123.6198</MEAN_ANOMALY></meanElements><tleParameters><EPHEMERIS_TYPE>0</EPHEMERIS_TYPE><CLASSIFICATION_TYPE>U</CLASSIFICATION_TYPE><NORAD_CAT_ID>25118</NORAD_CAT_ID><ELEMENT_SET_NO>999</ELEMENT_SET_NO><REV_AT_EPOCH>38339</REV_AT_EPOCH><BSTAR>.30541E-2</BSTAR><MEAN_MOTION_DOT>.1014E-3</MEAN_MOTION_DOT><MEAN_MOTION_DDOT>0</MEAN_MOTION_DDOT></tleParameters></data></segment></body></omm>
<omm id="CCSDS_OMM_VERS" version="2.0">
<header><CREATION_DATE/><ORIGINATOR/></header><body><segment><metadata><OBJECT_NAME>ORBCOMM FM07</OBJECT_NAME><OBJECT_ID>1997-084H</OBJECT_ID><CENTER_NAME>EARTH</CENTER_NAME><REF_FRAME>TEME</REF_FRAME><TIME_SYSTEM>UTC</TIME_SYSTEM><MEAN_ELEMENT_THEORY>SGP4</MEAN_ELEMENT_THEORY></metadata><data><meanElements><EPOCH>2024-05-10T23:21:19.591488</EPOCH><MEAN_MOTION>14.42654909</MEAN_MOTION><ECCENTRICITY>.0004683</ECCENTRICITY><INCLINATION>45.0124</INCLINATION><RA_OF_ASC_NODE>135.1614</RA_OF_ASC_NODE><ARG_OF_PERICENTER>330.2238</ARG_OF_PERICENTER><MEAN_ANOMALY>29.8345</MEAN_ANOMALY></meanElements><tleParameters><EPHEMERIS_TYPE>0</EPHEMERIS_TYPE><CLASSIFICATION_TYPE>U</CLASSIFICATION_TYPE><NORAD_CAT_ID>25119</NORAD_CAT_ID><ELEMENT_SET_NO>999</ELEMENT_SET_NO><REV_AT_EPOCH>38338</REV_AT_EPOCH><BSTAR>.29111E-2</BSTAR><MEAN_MOTION_DOT>.9642E-4</MEAN_MOTION_DOT><MEAN_MOTION_DDOT>0</MEAN_MOTION_DDOT></tleParameters></data></segment></body></omm>
<omm id="CCSDS_OMM_VERS" version="2.0">
<header><CREATION_DATE/><ORIGINATOR/></header><body><segment><metadata><OBJECT_NAME>ORBCOMM FM03</OBJECT_NAME><OBJECT_ID>1998-007B</OBJECT_ID><CENTER_NAME>EARTH</CENTER_NAME><REF_FRAME>TEME</REF_FRAME><TIME_SYSTEM>UTC</TIME_SYSTEM><MEAN_ELEMENT_THEORY>SGP4</MEAN_ELEMENT_THEORY></metadata><data><meanElements><EPOCH>2024-05-11T11:56:10.741056</EPOCH><MEAN_MOTION>14.32169341</MEAN_MOTION><ECCENTRICITY>.0047964</ECCENTRICITY><INCLINATION>107.9712</INCLINATION><RA_OF_ASC_NODE>31.7577</RA_OF_ASC_NODE><ARG_OF_PERICENTER>231.7182</ARG_OF_PERICENTER><MEAN_ANOMALY>127.9637</MEAN_ANOMALY></meanElements><tleParameters><EPHEMERIS_TYPE>0</EPHEMERIS_TYPE><CLASSIFICATION_TYPE>U</CLASSIFICATION_TYPE><NORAD_CAT_ID>25158</NORAD_CAT_ID><ELEMENT_SET_NO>999</ELEMENT_SET_NO><REV_AT_EPOCH>36662</REV_AT_EPOCH><BSTAR>.25206E-2</BSTAR><MEAN_MOTION_DOT>.6762E-4</MEAN_MOTION_DOT><MEAN_MOTION_DDOT>0</MEAN_MOTION_DDOT></tleParameters></data></segment></body></omm>
<omm id="CCSDS_OMM_VERS" version="2.0">
<header><CREATION_DATE/><ORIGINATOR/></header><body><segment><metadata><OBJECT_NAME>ORBCOMM FM04</OBJECT_NAME><OBJECT_ID>1998-007C</OBJECT_ID><CENTER_NAME>EARTH</CENTER_NAME><REF_FRAME>TEME</REF_FRAME><TIME_SYSTEM>UTC</TIME_SYSTEM><MEAN_ELEMENT_THEORY>SGP4</MEAN_ELEMENT_THEORY></metadata><data><meanElements><EPOCH>2024-05-11T11:39:33.641856</EPOCH><MEAN_MOTION>14.32429934</MEAN_MOTION><ECCENTRICITY>.0043489</ECCENTRICITY><INCLINATION>107.9695</INCLINATION><RA_OF_ASC_NODE>34.6710</RA_OF_ASC_NODE><ARG_OF_PERICENTER>229.7302</ARG_OF_PERICENTER><MEAN_ANOMALY>130.0030</MEAN_ANOMALY></meanElements><tleParameters><EPHEMERIS_TYPE>0</EPHEMERIS_TYPE><CLASSIFICATION_TYPE>U</CLASSIFICATION_TYPE><NORAD_CAT_ID>25159</NORAD_CAT_ID><ELEMENT_SET_NO>999</ELEMENT_SET_NO><REV_AT_EPOCH>36676</REV_AT_EPOCH><BSTAR>.26097E-2</BSTAR><MEAN_MOTION_DOT>.7027E-4</MEAN_MOTION_DOT><MEAN_MOTION_DDOT>0</MEAN_MOTION_DDOT></tleParameters></data></segment></body></omm>
<omm id="CCSDS_OMM_VERS" version="2.0">
<header><CREATION_DATE/><ORIGINATOR/></header><body><segment><metadata><OBJECT_NAME>ORBCOMM FM17</OBJECT_NAME><OBJECT_ID>1998-046A</OBJECT_ID><CENTER_NAME>EARTH</CENTER_NAME><REF_FRAME>TEME</REF_FRAME><TIME_SYSTEM>UTC</TIME_SYSTEM><MEAN_ELEMENT_THEORY>SGP4</MEAN_ELEMENT_THEORY></metadata><data><meanElements><EPOCH>2024-05-10T16:49:40.794240</EPOCH><MEAN_MOTION>14.33132981</MEAN_MOTION><ECCENTRICITY>.000227</ECCENTRICITY><INCLINATION>44.9961</INCLINATION><RA_OF_ASC_NODE>354.3057</RA_OF_ASC_NODE><ARG_OF_PERICENTER>3.4461</ARG_OF_PERICENTER><MEAN_ANOMALY>356.6400</MEAN_ANOMALY></meanElements><tleParameters><EPHEMERIS_TYPE>0</EPHEMERIS_TYPE><CLASSIFICATION_TYPE>U</CLASSIFICATION_TYPE><NORAD_CAT_ID>25413</NORAD_CAT_ID><ELEMENT_SET_NO>999</ELEMENT_SET_NO><REV_AT_EPOCH>34539</REV_AT_EPOCH><BSTAR>.79987E-3</BSTAR><MEAN_MOTION_DOT>.2075E-4</MEAN_MOTION_DOT><MEAN_MOTION_DDOT>0</MEAN_MOTION_DDOT></tleParameters></data></segment></body></omm>
<omm id="CCSDS_OMM_VERS" version="2.0">
<header><CREATION_DATE/><ORIGINATOR/></header><body><segment><metadata><OBJECT_NAME>ORBCOMM FM18</OBJECT_NAME><OBJECT_ID>1998-046B</OBJECT_ID><CENTER_NAME>EARTH</CENTER_NAME><REF_FRAME>TEME</REF_FRAME><TIME_SYSTEM>UTC</TIME_SYSTEM><MEAN_ELEMENT_THEORY>SGP4</MEAN_ELEMENT_THEORY></metadata><data><meanElements><EPOCH>2024-05-11T11:03:09.567360</EPOCH><MEAN_MOTION>14.35932641</MEAN_MOTION><ECCENTRICITY>.0002985</ECCENTRICITY><INCLINATION>44.9930</INCLINATION><RA_OF_ASC_NODE>277.8067</RA_OF_ASC_NODE><ARG_OF_PERICENTER>70.6786</ARG_OF_PERICENTER><MEAN_ANOMALY>289.4384</MEAN_ANOMALY></meanElements><tleParameters><EPHEMERIS_TYPE>0</EPHEMERIS_TYPE><CLASSIFICATION_TYPE>U</CLASSIFICATION_TYPE><NORAD_CAT_ID>25414</NORAD_CAT_ID><ELEMENT_SET_NO>999</ELEMENT_SET_NO><REV_AT_EPOCH>34662</REV_AT_EPOCH><BSTAR>.49334E-2</BSTAR><MEAN_MOTION_DOT>.14335E-3</MEAN_MOTION_DOT><MEAN_MOTION_DDOT>0</MEAN_MOTION_DDOT></tleParameters></data></segment></body></omm>
<omm id="CCSDS_OMM_VERS" version="2.0">
<header><CREATION_DATE/><ORIGINATOR/></header><body><segment><metadata><OBJECT_NAME>ORBCOMM FM19</OBJECT_NAME><OBJECT_ID>1998-046C</OBJECT_ID><CENTER_NAME>EARTH</CENTER_NAME><REF_FRAME>TEME</REF_FRAME><TIME_SYSTEM>UTC</TIME_SYSTEM><MEAN_ELEMENT_THEORY>SGP4</MEAN_ELEMENT_THEORY></metadata><data><meanElements><EPOCH>2024-05-11T12:23:40.751232</EPOCH><MEAN_MOTION>14.35748102</MEAN_MOTION><ECCENTRICITY>.0001717</ECCENTRICITY><INCLINATION>44.9939</INCLINATION><RA_OF_ASC_NODE>278.9557</RA_OF_ASC_NODE><ARG_OF_PERICENTER>66.5541</ARG_OF_PERICENTER><MEAN_ANOMALY>37.4291</MEAN_ANOMALY></meanElements><tleParameters><EPHEMERIS_TYPE>0</EPHEMERIS_TYPE><CLASSIFICATION_TYPE>U</CLASSIFICATION_TYPE><NORAD_CAT_ID>25415</NORAD_CAT_ID><ELEMENT_SET_NO>999</ELEMENT_SET_NO><REV_AT_EPOCH>34662</REV_AT_EPOCH><BSTAR>.25389E-2</BSTAR><MEAN_MOTION_DOT>.7273E-4</MEAN_MOTION_DOT><MEAN_MOTION_DDOT>0</MEAN_MOTION_DDOT></tleParameters></data></segment></body></omm>

</ndm>
